[{"OBJECT_NAME":"COSMOS 2538","OBJECT_ID":"2019-039D","EPOCH":"2026-03-09T23:22:28.343424","MEAN_MOTION":15.19536029,"ECCENTRICITY":0.00437345,"INCLINATION":97.5929,"RA_OF_ASC_NODE":147.7512,"ARG_OF_PERICENTER":31.8471,"MEAN_ANOMALY":328.5393,"EPHEMERIS_TYPE":0,"CLASSIFICATION_TYPE":"U","NORAD_CAT_ID":44424,"ELEMENT_SET_NO":999,"REV_AT_EPOCH":36483,"BSTAR":0.00035711669,"MEAN_MOTION_DOT":7.713e-5,"MEAN_MOTION_DDOT":0},{"OBJECT_NAME":"STARLINK-35565","OBJECT_ID":"2025-278N","EPOCH":"2026-03-09T03:36:43.619040","MEAN_MOTION":15.27563931,"ECCENTRICITY":0.00010759,"INCLINATION":42.9962,"RA_OF_ASC_NODE":117.6695,"ARG_OF_PERICENTER":244.795,"MEAN_ANOMALY":115.279,"EPHEMERIS_TYPE":0,"CLASSIFICATION_TYPE":"U","NORAD_CAT_ID":66803,"ELEMENT_SET_NO":999,"REV_AT_EPOCH":1512,"BSTAR":0.0009348438,"MEAN_MOTION_DOT":0.00025539,"MEAN_MOTION_DDOT":0}]
